ordinal{string},comment{string},originator{string},norad_cat_id{string},object_name{string},object_type{string},classification_type{string},intldes{string},epoch{timestamp},epoch_microseconds{integer},mean_motion{decimal},eccentricity{decimal},inclination{decimal},ra_of_asc_node{decimal},arg_of_pericenter{decimal},mean_anomaly{decimal},ephemeris_type{string},element_set_no{string},rev_at_epoch{integer},bstar{decimal},mean_motion_dot{decimal},mean_motion_ddot{string},file{string},tle_line0{string},tle_line1{string},tle_line2{string},object_id{string},object_number{string},semimajor_axis{decimal},period{decimal},apogee{decimal},perigee{decimal}
1,GENERATED VIA SPACETRACK.ORG API,JSPOC,15271,NAVSTAR 10 (USA 5),PAYLOAD,U,84097A,2019-02-22T01:21:16Z,771104,1.92618369,0.0130881000000000001,63.5420000000000016,10.0809999999999995,228.186800000000005,131.678200000000004,0,999,24484,0,-6.79999999999999948e-07,0,2414542,0 NAVSTAR 10 (USA 5),1 15271U 84097A   19053.05644411 -.00000068  00000-0  00000+0 0  9991,2 15271  63.5420  10.0810 0130881 228.1868 131.6782  1.92618369244849,1984-097A,15271,27285.7999999999993,747.591999999999985,21264.7849999999999,20550.5459999999985
1,GENERATED VIA SPACETRACK.ORG API,JSPOC,23051,GOES 8,PAYLOAD,U,94022A,2019-02-22T01:21:54Z,457056,0.98905717999999998,0.000961300000000000002,12.0787999999999993,33.4249999999999972,289.346499999999992,54.7353000000000023,0,999,9769,0,-6.09999999999999983e-07,0,2414532,0 GOES 8,1 23051U 94022A   19053.05688029 -.00000061  00000-0  00000+0 0  9991,2 23051  12.0788  33.4250 0009613 289.3465  54.7353  0.98905718 97697,1994-022A,23051,42552.0910000000003,1455.93200000000002,36214.8609999999971,36133.0500000000029
1,GENERATED VIA SPACETRACK.ORG API,JSPOC,1512,TEMPSAT 1,PAYLOAD,U,65065E,2019-02-22T01:23:25Z,944288,13.3341950499999999,0.00694890000000000004,89.8469999999999942,232.494900000000001,190.237799999999993,296.465599999999995,0,999,60393,-1.70100000000000015e-05,1.00000000000000002e-08,0,2414222,0 TEMPSAT 1,1  1512U 65065E   19053.05793917  .00000001  00000-0 -17010-4 0  9995,2  1512  89.8470 232.4949 0069489 190.2378 296.4656 13.33419505603939,1965-065E,1512,7512.02900000000045,107.992999999999995,1186.09500000000003,1081.69399999999996
1,GENERATED VIA SPACETRACK.ORG API,JSPOC,42695,GSAT 9,PAYLOAD,U,17024A,2019-02-22T01:24:58Z,898592,1.00273444,0.000263700000000000013,0.095100000000000004,275.156700000000001,74.9021999999999935,280.147899999999993,0,999,663,0,-3.09000000000000006e-06,0,2414257,0 GSAT 9,1 42695U 17024A   19053.05901503 -.00000309  00000-0  00000+0 0  9993,2 42695   0.0951 275.1567 0002637  74.9022 280.1479  1.00273444  6639,2017-024A,42695,42164.2660000000033,1436.07300000000009,35797.25,35775.012999999999
1,GENERATED VIA SPACETRACK.ORG API,JSPOC,21196,MOLNIYA 3-40,PAYLOAD,U,91022A,2019-02-22T01:25:31Z,111968,2.03008927999999989,0.682750300000000032,63.8140000000000001,104.353800000000007,286.719800000000021,12.9219000000000008,0,999,20506,0,-8.34999999999999968e-06,0,2414477,0 MOLNIYA 3-40,1 21196U 91022A   19053.05938787 -.00000835  00000-0  00000+0 0  9994,2 21196  63.8140 104.3538 6827503 286.7198  12.9219  2.03008928205068,1991-022A,21196,26346.630000000001,709.327999999999975,37956.6650000000009,1980.32500000000005
1,GENERATED VIA SPACETRACK.ORG API,JSPOC,26639,AMC-8 (GE-8),PAYLOAD,U,00081B,2019-02-22T01:26:18Z,257856,1.00271339999999998,0.000226099999999999993,0.0189999999999999995,270.501599999999996,26.3585999999999991,97.3765999999999963,0,999,6648,0,8.19999999999999984e-07,0,2414250,0 AMC-8 (GE-8),1 26639U 00081B   19053.05993354  .00000082  00000-0  00000+0 0  9990,2 26639   0.0190 270.5016 0002261  26.3586  97.3766  1.00271340 66480,2000-081B,26639,42164.8559999999998,1436.10300000000007,35796.2549999999974,35777.1880000000019
1,GENERATED VIA SPACETRACK.ORG API,JSPOC,2220,OPS 9316 (IDSCS 6),PAYLOAD,U,66053G,2019-02-22T01:27:18Z,554688,1.07156852000000002,0.00579140000000000037,3.49690000000000012,60.1818000000000026,113.836200000000005,223.683600000000013,0,999,11039,0,-1.23000000000000008e-06,0,2414286,0 OPS 9316 (IDSCS 6),1  2220U 66053G   19053.06063142 -.00000123  00000-0  00000+0 0  9992,2  2220   3.4969  60.1818 0057914 113.8362 223.6836  1.07156852110392,1966-053G,2220,40338.6979999999967,1343.82400000000007,34194.1800000000003,33726.9449999999997
1,GENERATED VIA SPACETRACK.ORG API,JSPOC,43491,FENGYUN 2H,PAYLOAD,U,18050A,2019-02-22T01:27:55Z,519200,1.00272709000000004,0.000204899999999999993,1.77390000000000003,283.295900000000017,263.774400000000014,65.6903999999999968,0,999,271,0,-1.50999999999999994e-06,0,2414356,0 FENGYUN 2H,1 43491U 18050A   19053.06105925 -.00000151  00000-0  00000+0 0  9998,2 43491   1.7739 283.2959 0002049 263.7744  65.6904  1.00272709  2714,2018-050A,43491,42164.4720000000016,1436.08300000000008,35794.976999999999,35777.6979999999967
1,GENERATED VIA SPACETRACK.ORG API,JSPOC,40038,FLOCK 1C 5,PAYLOAD,U,14033AE,2019-02-22T01:29:45Z,667104,14.89799206,0.00155090000000000002,97.9274000000000058,336.521900000000016,71.7528999999999968,288.537399999999991,0,999,25403,6.80599999999999955e-05,5.96999999999999959e-06,0,2414255,0 FLOCK 1C 5,1 40038U 14033AE  19053.06233411  .00000597  00000-0  68060-4 0  9999,2 40038  97.9274 336.5219 0015509  71.7529 288.5374 14.89799206254031,2014-033AE,40038,6976.69899999999961,96.6569999999999965,609.384000000000015,587.744000000000028
1,GENERATED VIA SPACETRACK.ORG API,JSPOC,11261,AYAME 1 (ECS 1),PAYLOAD,U,79009A,2019-02-22T01:30:10Z,158048,1.68579170999999994,0.366958600000000024,9.05599999999999916,87.4598000000000013,198.564899999999994,338.773199999999974,0,999,13109,0,-1.0499999999999999e-06,0,2414287,0 AYAME 1 (ECS 1),1 11261U 79009A   19053.06261757 -.00000105  00000-0  00000+0 0  9994,2 11261   9.0560  87.4598 3669586 198.5649 338.7732  1.68579171131091,1979-009A,11261,29821.7109999999993,854.197999999999979,34386.9100000000035,12500.2430000000004
1,GENERATED VIA SPACETRACK.ORG API,JSPOC,26061,JAWSAT,PAYLOAD,U,00004A,2019-02-22T01:30:51Z,770016,14.4128596699999996,0.00330180000000000013,100.220500000000001,220.245000000000005,275.733400000000017,84.008499999999998,0,999,182,2.88529999999999997e-05,3.30000000000000017e-07,0,2414247,0 JAWSAT,1 26061U 00004A   19053.06309919  .00000033  00000-0  28853-4 0  9990,2 26061 100.2205 220.2450 0033018 275.7334  84.0085 14.41285967  1821,2000-004A,26061,7132.38900000000012,99.9099999999999966,777.803999999999974,730.705000000000041
1,GENERATED VIA SPACETRACK.ORG API,JSPOC,18402,COSMOS 1891,PAYLOAD,U,87087A,2019-02-22T01:31:53Z,509728,13.7367401099999995,0.00512769999999999979,82.921599999999998,36.0230000000000032,35.1792999999999978,325.273000000000025,0,999,57194,7.25920000000000031e-07,1.60000000000000003e-07,0,2414311,0 COSMOS 1891,1 18402U 87087A   19053.06381377  .00000016  00000-0  72592-6 0  9996,2 18402  82.9216  36.0230 0051277  35.1793 325.2730 13.73674011571940,1987-087A,18402,7364.54699999999957,104.828000000000003,1024.17499999999995,948.649000000000001
1,GENERATED VIA SPACETRACK.ORG API,JSPOC,41589,EUTELSAT 117W B,PAYLOAD,U,16038B,2019-02-22T01:32:42Z,654048,1.00272914000000002,3.53999999999999999e-05,0.0134000000000000005,275.540300000000002,222.496499999999997,279.801699999999983,0,999,991,0,-3.39999999999999974e-07,0,2414304,0 EUTELSAT 117W B,1 41589U 16038B   19053.06438257 -.00000034  00000-0  00000+0 0  9995,2 41589   0.0134 275.5403 0000354 222.4965 279.8017  1.00272914  9914,2016-038B,41589,42164.4150000000009,1436.07999999999993,35787.773000000001,35784.7869999999966
1,GENERATED VIA SPACETRACK.ORG API,JSPOC,39122,EUTE 117 WEST A(SATMEX 8,PAYLOAD,U,13012A,2019-02-22T01:32:42Z,654048,1.00271814000000004,0.000277500000000000023,0.049799999999999997,300.054300000000012,42.5208999999999975,75.4368000000000052,0,999,2167,0,-3.49999999999999984e-07,0,2414334,0 EUTE 117 WEST A(SATMEX 8,1 39122U 13012A   19053.06438257 -.00000035  00000-0  00000+0 0  9995,2 39122   0.0498 300.0543 0002775  42.5209  75.4368  1.00271814 21671,2013-012A,39122,42164.7229999999981,1436.096,35798.288999999997,35774.887999999999
1,GENERATED VIA SPACETRACK.ORG API,JSPOC,22999,COSMOS 2268,PAYLOAD,U,94011A,2019-02-22T01:33:12Z,754080,12.6115474800000005,0.00105959999999999995,82.5729000000000042,242.339799999999997,123.206299999999999,355.516900000000021,0,999,15213,-4.3744e-05,2.99999999999999973e-08,0,2414336,0 COSMOS 2268,1 22999U 94011A   19053.06473095  .00000003  00000-0 -43744-4 0  9998,2 22999  82.5729 242.3398 0010596 123.2063 355.5169 12.61154748152130,1994-011A,22999,7796.31800000000021,114.180999999999997,1426.44399999999996,1409.92200000000003
1,GENERATED VIA SPACETRACK.ORG API,JSPOC,23864,PALAPA C2,PAYLOAD,U,96030A,2019-02-22T01:34:28Z,176096,0.98999493999999999,0.000364799999999999977,6.83089999999999975,55.4010999999999996,351.218200000000024,17.9894999999999996,0,999,8328,0,2.39999999999999979e-07,0,2414294,0 PALAPA C2,1 23864U 96030A   19053.06560389  .00000024  00000-0  00000+0 0  9991,2 23864   6.8309  55.4011 0003648 351.2182  17.9895  0.98999494 83281,1996-030A,23864,42525.2149999999965,1454.55199999999991,36162.5930000000008,36131.5670000000027
1,GENERATED VIA SPACETRACK.ORG API,JSPOC,23768,ABS 1A (KOREASAT 2),PAYLOAD,U,96003A,2019-02-22T01:34:35Z,711904,0.997874869999999969,0.000521100000000000035,9.06070000000000064,42.7616000000000014,306.02030000000002,76.991100000000003,0,999,8454,0,-2.59999999999999999e-07,0,2414295,0 ABS 1A (KOREASAT 2),1 23768U 96003A   19053.06569111 -.00000026  00000-0  00000+0 0  9999,2 23768   9.0607  42.7616 0005211 306.0203  76.9911  0.99787487 84542,1996-003A,23768,42301.0469999999987,1443.06600000000003,35944.9550000000017,35900.8680000000022
